OBJECT A                
1 44879U 19093A   20307.93000038  .00002963  00000-0  38420-3 0  9999
2 44879  97.9481  22.9487 0013758 310.1623  49.8259 14.81488443 47209
OBJECT B                
1 44880U 19093B   20308.13040465  .00000249  00000-0  38648-4 0  9990
2 44880  97.9486  23.1594 0014135 311.3446  48.6554 14.81468541 47228
CAS-6 (TIANQIN 1)       
1 44881U 19093C   20308.19648122 -.00000079  00000-0 -32998-5 0  9997
2 44881  97.9481  23.2264 0013899 310.8636  49.1403 14.81413616 47233
OBJECT D                
1 44882U 19093D   20307.91028135  .00000334  00000-0  49367-4 0  9992
2 44882  97.9524  23.1238 0015121 313.2971  46.6970 14.81569405 47195
CBERS 4A                
1 44883U 19093E   20308.10798419  .00000147  00000-0  25461-4 0  9995
2 44883  97.9491  23.2080 0001501  87.2128 272.9264 14.81529297 47234
OBJECT F                
1 44884U 19093F   20308.17903871  .00000298  00000-0  44417-4 0  9992
2 44884  97.9470  23.3275 0012645 318.1142  41.9121 14.81883660 47246
FLORIPASAT-1            
1 44885U 19093G   20308.20137049  .00000390  00000-0  55771-4 0  9991
2 44885  97.9483  23.5159 0013690 320.9958  39.0276 14.82108039 47252
OBJECT H                
1 44886U 19093H   20307.92428353  .00000285  00000-0  42283-4 0  9998
2 44886  97.9501  23.4778 0014364 328.3203  31.7136 14.82431133 47229
OBJECT J                
1 44887U 19093J   20308.12942841  .00000180  00000-0  29159-4 0  9996
2 44887  97.9494  23.6547 0014342 327.1326  32.9000 14.82403261 47253
CZ-4B R/B               
1 44888U 19093K   20307.84030254  .00000757  00000-0  41613-4 0  9990
2 44888  97.8593  33.9816 0123965  15.0158 345.4698 15.11227018 48134
OBJECT L                
1 44889U 19093L   20308.13267443  .00000300  00000-0  45745-4 0  9990
2 44889  97.9456  22.7194 0014398 301.1260  58.8542 14.80824337 47135
OBJECT M                
1 44890U 19093M   20308.18034115  .00000483  00000-0  61096-4 0  9994
2 44890  97.8995  23.2921 0047652 325.1003  34.7112 14.85691940 47287
OBJECT N                
1 44891U 19093N   20308.10933925  .00000394  00000-0  50902-4 0  9999
2 44891  98.0086  27.8324 0026208  68.9047 291.4968 14.86326079 47294
